[{"OBJECT_NAME":"STARLINK-4332","OBJECT_ID":"2022-084B","EPOCH":"2026-03-09T15:18:09.286272","MEAN_MOTION":15.05645682,"ECCENTRICITY":6.38e-5,"INCLINATION":97.603,"RA_OF_ASC_NODE":131.1579,"ARG_OF_PERICENTER":159.7019,"MEAN_ANOMALY":200.4234,"EPHEMERIS_TYPE":0,"CLASSIFICATION_TYPE":"U","NORAD_CAT_ID":53190,"ELEMENT_SET_NO":999,"REV_AT_EPOCH":20004,"BSTAR":1.0623e-5,"MEAN_MOTION_DOT":9.3e-7,"MEAN_MOTION_DDOT":0},{"OBJECT_NAME":"RAPIDEYE 5","OBJECT_ID":"2008-040B","EPOCH":"2026-03-09T15:17:22.403904","MEAN_MOTION":15.02179038,"ECCENTRICITY":0.0014834,"INCLINATION":97.3944,"RA_OF_ASC_NODE":91.3825,"ARG_OF_PERICENTER":86.9831,"MEAN_ANOMALY":273.3091,"EPHEMERIS_TYPE":0,"CLASSIFICATION_TYPE":"U","NORAD_CAT_ID":33313,"ELEMENT_SET_NO":999,"REV_AT_EPOCH":95055,"BSTAR":0.00014028,"MEAN_MOTION_DOT":1.794e-5,"MEAN_MOTION_DDOT":0}]
